[{"OBJECT_NAME":"OBJECT D","OBJECT_ID":"2024-203D","EPOCH":"2026-03-09T23:01:14.628576","MEAN_MOTION":15.25394324,"ECCENTRICITY":0.00105281,"INCLINATION":97.4343,"RA_OF_ASC_NODE":139.6527,"ARG_OF_PERICENTER":340.1906,"MEAN_ANOMALY":19.8921,"EPHEMERIS_TYPE":0,"CLASSIFICATION_TYPE":"U","NORAD_CAT_ID":61872,"ELEMENT_SET_NO":999,"REV_AT_EPOCH":7378,"BSTAR":0.00059366578,"MEAN_MOTION_DOT":0.00014956,"MEAN_MOTION_DDOT":0},{"OBJECT_NAME":"STARLINK-33683","OBJECT_ID":"2025-076E","EPOCH":"2026-03-09T01:56:45.960864","MEAN_MOTION":15.27589005,"ECCENTRICITY":0.00021679,"INCLINATION":43.0035,"RA_OF_ASC_NODE":325.4548,"ARG_OF_PERICENTER":261.0365,"MEAN_ANOMALY":99.0241,"EPHEMERIS_TYPE":0,"CLASSIFICATION_TYPE":"U","NORAD_CAT_ID":63573,"ELEMENT_SET_NO":999,"REV_AT_EPOCH":5173,"BSTAR":0.0010565588,"MEAN_MOTION_DOT":0.00028935,"MEAN_MOTION_DDOT":0}]
